C/2014 G3 (PANSTARRS),e,156.0742,4.7158,148.0791,53.38388,0.0025269,0.91186861,2.9808,04/27.0/2018,2000,g  9.0,4.0
# From MPC 88697
C/2014 H1 (Christensen),e,99.9376,34.6655,169.3198,139.5394,0.0005979,0.98461638,0.0000,04/15.1783/2014,2000,g 14.5,4.0
# From MPC105541
C/2014 HU195 (Valdes-TOTAS),e,5.8191,115.7717,145.1756,22.01646,0.0095408,0.76728051,10.2466,04/27.0/2018,2000,g 10.5,4.0
# From MPC109588
C/2014 J1 (Catalina),e,159.7114,41.9656,195.5255,8.750067,0.0380791,0.80428513,53.5774,04/27.0/2018,2000,g 17.0,4.0
# From MPC 93585
P/2014 L2 (NEOWISE),e,5.1873,149.3841,182.6388,6.307530,0.0622179,0.64673545,85.9566,04/27.0/2018,2000,g 12.0,4.0
# From MPC 90769
P/2014 L3 (Hill),e,6.2704,115.5055,178.5489,8.156232,0.0423126,0.77350533,59.1406,04/27.0/2018,2000,g 16.0,4.0
# From MPC 95731
C/2014 L5 (Lemmon),h,11/24.8029/2014,122.8125,35.7219,45.5402,1.000278,6.201107,2000,8.0,4.0
# From MPC103844
C/2014 M1 (PANSTARRS),e,160.2152,234.7502,336.9789,4517,0.0000032,0.99876307,0.0000,08/26.8756/2015,2000,g  9.0,4.0
# From MPC109141
C/2014 M2 (Christensen),e,32.4041,245.2607,40.7482,1566,0.0000159,0.99558655,0.0000,07/18.4596/2014,2000,g  6.0,4.0
# From MPC 90769
C/2014 M3 (Catalina),e,164.9038,80.3665,93.6113,126.4834,0.0006929,0.98077102,0.0000,06/20.5829/2014,2000,g 14.0,4.0
# From MPC 91614
P/2014 M4 (PANSTARRS),e,3.3341,263.2985,148.0651,5.883640,0.0690613,0.59366468,84.0984,04/27.0/2018,2000,g 15.0,4.0
# From MPC103844
P/2014 MG4 (Spacewatch-PANSTARRS),e,9.3660,311.7843,298.8659,5.011534,0.0878513,0.26012487,156.1090,04/27.0/2018,2000,g  9.5,4.0
# From MPC 93586
C/2014 N2 (PANSTARRS),e,132.9119,143.8755,238.0490,2464,0.0000081,0.99911014,0.0000,10/07.5293/2014,2000,g 14.5,4.0
# From MPC103844
C/2014 N3 (NEOWISE),e,61.6435,19.9239,353.4513,1849,0.0000124,0.99790297,0.0000,03/12.5994/2015,2000,g  7.0,4.0
# From MPC 98560
P/2014 O3 (PANSTARRS),e,7.8082,87.6452,204.3378,7.550015,0.0475097,0.38603355,69.8470,04/27.0/2018,2000,g 10.5,4.0
# From MPC109588
C/2014 OE4 (PANSTARRS),h,12/11.2546/2016,81.3476,240.3887,65.7846,1.000525,6.244945,2000,11.0,2.0
# From MPC100578
C/2014 Q1 (PANSTARRS),e,43.1047,8.7822,120.1088,1182,0.0000243,0.99973205,0.0000,07/06.1991/2015,2000,g  8.0,4.0
# From MPC103844
C/2014 Q2 (Lovejoy),e,80.2362,95.0237,12.4044,497.8343,0.0000887,0.99740426,0.0000,01/29.5665/2015,2000,g  2.7,10.0
# From MPC 90770
C/2014 QU2 (PANSTARRS),e,124.8132,332.9464,320.2999,224.2050,0.0002936,0.99010649,0.0000,07/09.4240/2014,2000,g 15.0,4.0
# From MPC102952
C/2014 Q3 (Borisov),e,89.8756,63.1385,47.3546,28.07077,0.0066271,0.94127660,8.3223,04/27.0/2018,2000,g -0.5,20.0
# From MPC 95732
C/2014 Q6 (PANSTARRS),e,49.7955,326.6041,2.4674,3382,0.0000050,0.99875289,0.0000,01/06.0023/2015,2000,g  9.5,4.0
# From MPC 95211
C/2014 R1 (Borisov),e,9.9177,104.0387,55.7503,182.1309,0.0004010,0.99258979,0.0000,11/18.8698/2014,2000,g  6.5,8.8
# From MPC109589
C/2014 R3 (PANSTARRS),e,90.8511,334.1001,113.4556,6836,0.0000017,0.99893552,0.0000,08/08.5580/2016,2000,g  6.5,4.0
# From MPC 92982
C/2014 R4 (Gibbs),e,42.3906,279.5501,180.7943,991.1610,0.0000316,0.99816374,0.0000,10/20.5351/2014,2000,g 13.0,4.0
# From MPC 91615
P/2014 R5 (Lemmon-PANSTARRS),e,1.0882,126.5433,213.7227,4.059471,0.1205035,0.41239938,169.9733,04/27.0/2018,2000,g 15.0,4.0
# From MPC 95732
C/2014 S1 (PANSTARRS),h,10/30.4765/2013,123.7860,352.6567,288.7741,1.003546,8.131170,2000,7.0,4.0
# From MPC104790
C/2014 S2 (PANSTARRS),e,64.4090,8.0554,87.4228,180.9436,0.0004049,0.98848671,0.0000,12/09.7120/2015,2000,g 10.0,4.0
# From MPC 90770
C/2014 S3 (PANSTARRS),e,169.3242,356.0739,293.0753,87.43015,0.0012056,0.97661729,0.0000,08/13.3474/2014,2000,g 17.0,4.0
# From MPC 91615
C/2014 TG64 (Catalina),e,22.2965,50.3091,294.5815,14.79505,0.0173193,0.78163703,24.8057,04/27.0/2018,2000,g 13.0,4.0
# From MPC 92274
P/2014 U2 (Kowalski),e,7.2986,354.6693,36.9974,2.910137,0.1985336,0.61512180,254.3482,04/27.0/2018,2000,g 19.5,4.0
# From MPC 91616
C/2014 U3 (Kowalski),e,152.9663,163.5942,51.3181,999.3730,0.0000312,0.99744266,0.0000,09/04.1258/2014,2000,g 14.5,4.0
# From MPC 91616
P/2014 U4 (PANSTARRS),e,6.4469,12.0385,347.9692,3.498425,0.1506243,0.46682711,205.8297,04/27.0/2018,2000,g 18.0,4.0
# From MPC 95211
P/2014 V1 (PANSTARRS),e,22.4775,166.2423,177.5795,5.486970,0.0766841,0.53270123,91.4614,04/27.0/2018,2000,g 14.0,4.0
# From MPC 93586
P/2014 W1 (PANSTARRS),e,8.8378,246.2636,152.5004,4.452947,0.1048897,0.39089514,143.4967,04/27.0/2018,2000,g 15.5,4.0
# From MPC106343
C/2014 W2 (PANSTARRS),e,82.0271,69.9621,84.9987,970.2887,0.0000326,0.99724742,0.0000,03/10.1390/2016,2000,g  7.5,4.0
# From MPC 98561
C/2014 W3 (PANSTARRS),h,02/27.2246/2014,90.1497,286.4232,158.9435,1.006012,6.067688,2000,8.5,4.0
# From MPC105542
P/2014 W4 (PANSTARRS),e,15.2736,33.3436,67.8842,6.603907,0.0580768,0.35352134,49.1540,04/27.0/2018,2000,g 11.0,4.0
# From MPC 95211
C/2014 W6 (Catalina),h,03/19.1362/2015,53.5472,338.1558,209.9406,1.001677,3.092318,2000,10.5,4.0
# From MPC 92982
C/2014 W7 (Christensen),e,98.2412,151.2729,33.2820,11.40729,0.0255818,0.86949338,31.0090,04/27.0/2018,2000,g 16.0,4.0
# From MPC 91616
C/2014 W8 (PANSTARRS),e,41.9431,224.8513,228.0798,180.8672,0.0004052,0.97221859,0.0000,09/10.1769/2015,2000,g 11.0,4.0
# From MPC 94672
C/2014 W9 (PANSTARRS),e,10.6293,21.2848,167.8853,11.20502,0.0262776,0.85793978,30.6496,04/27.0/2018,2000,g 16.0,4.0
# From MPC107047
C/2014 W11 (PANSTARRS),e,12.7105,295.8536,225.6466,9.723543,0.0325063,0.64747178,33.9856,04/27.0/2018,2000,g 10.0,4.0
# From MPC 93587
P/2014 W12 (Gibbs),e,8.5125,299.2738,36.9526,3.517717,0.1493870,0.52340035,188.1781,04/27.0/2018,2000,g 15.0,4.0
# From MPC 94281
P/2014 X1 (Elenin),e,26.0192,61.5123,34.1682,6.226223,0.0634406,0.70933828,76.5440,04/27.0/2018,2000,g 15.0,4.0
# From MPC 96866
C/2014 XB8 (PANSTARRS),e,149.7877,37.4974,351.3884,835.7911,0.0000408,0.99640303,0.0000,04/05.3609/2015,2000,g 13.5,4.0
# From MPC100579
C/2014 Y1 (PANSTARRS),h,01/17.5800/2016,14.9281,19.4715,182.3196,1.001825,2.244458,2000,9.5,4.0
# From MPC 95733
C/2015 A1 (PANSTARRS),e,80.3150,341.0774,244.9120,20.25137,0.0108149,0.90146813,12.3359,04/27.0/2018,2000,g 14.5,4.0
# From MPC 93587
C/2015 A2 (PANSTARRS),p,08/01.8353/2015,109.1696,208.8369,5.341055,258.5042,2000,10.5,4.0
# From MPC 92275
P/2015 A3 (PANSTARRS),e,172.5255,277.1415,249.2420,7.826161,0.0450175,0.85236097,52.2432,04/27.0/2018,2000,g 20.0,4.0
# From MPC 99270
P/2015 B1 (PANSTARRS),e,18.0221,353.2617,188.5728,9.534758,0.0334765,0.37289272,31.7744,04/27.0/2018,2000,g  8.5,4.0
# From MPC108592
C/2015 B2 (PANSTARRS),h,05/06.5786/2016,105.0680,341.9031,284.7554,1.000820,3.368779,2000,9.5,4.0
# From MPC109141
P/2015 B4 (Lemmon-PANSTARRS),e,1.7563,266.0591,227.6718,8.575148,0.0392502,0.56353377,45.9117,04/27.0/2018,2000,g 11.0,4.0
# From MPC101096
P/2015 C1 (TOTAS-Gibbs),e,13.8809,348.8460,178.4419,6.594512,0.0582009,0.56094045,63.5619,04/27.0/2018,2000,g 12.5,4.0
# From MPC 95211
C/2015 C2 (SWAN),e,94.4733,49.5859,334.0571,383.1624,0.0001314,0.99814891,0.0000,03/04.3253/2015,2000,g 14.0,4.0
# From MPC 98561
C/2015 D2 (PANSTARRS),e,31.8963,162.8016,292.6822,12.85950,0.0213731,0.56067563,35.7142,04/27.0/2018,2000,g  8.0,4.0
# From MPC109589
C/2015 D3 (PANSTARRS),h,05/02.7885/2016,128.5198,156.9913,2.9738,1.002838,8.150903,2000,5.5,4.0
# From MPC 94672
C/2015 D4 (Borisov),e,77.3264,305.6477,314.6788,78.20183,0.0014252,0.98900205,0.0000,10/28.2909/2014,2000,g 12.0,4.0
# From MPC109141
P/2015 D5 (Kowalski),e,20.4876,74.0685,40.0955,9.001818,0.0364929,0.49129100,54.0105,04/27.0/2018,2000,g  9.0,4.0
# From MPC 96866
P/2015 D6 (Lemmon-PANSTARRS),e,20.2300,46.2275,125.5039,7.172989,0.0513043,0.36394657,52.3465,04/27.0/2018,2000,g 10.5,4.0
# From MPC109589
C/2015 ER61 (PANSTARRS),e,6.3495,235.2204,68.1912,402.9534,0.0001218,0.99741421,0.0000,05/09.9654/2017,2000,g 11.0,2.0
# From MPEC 2018-BF5
C/2015 E61-B (PANSTARRS),e,6.3511,235.2555,68.2805,850.2844,0.0000398,0.99877256,0.0000,05/09.9432/2017,2000,g 13.5,2.0
# From MPC109142
P/2015 F1 (PANSTARRS),e,2.8039,40.4248,187.3015,3.524168,0.1489770,0.27853775,169.5614,04/27.0/2018,2000,g 12.5,4.0
# From MPC 95733
C/2015 F2 (Polonia),e,28.7206,262.4647,352.1220,38.77337,0.0040823,0.96878822,4.4654,04/27.0/2018,2000,g 16.5,4.0
# From MPC 96279
C/2015 F3 (SWAN),e,73.4297,31.6469,57.4782,189.8942,0.0003766,0.99561015,0.0000,03/08.5335/2015,2000,g 14.5,4.0
# From MPC102952
C/2015 F4 (Jacques),e,48.7547,285.9287,36.3150,114.3675,0.0008058,0.98564463,0.0000,08/10.9717/2015,2000,g 11.0,4.0
# From MPC 95212
C/2015 F5 (SWAN-Xingming),e,149.2955,287.7553,13.4253,15.52392,0.0161140,0.97763044,0.0000,03/27.8449/2015,2000,g 15.5,4.0
# From MPC102096
C/2015 GX (PANSTARRS),e,90.2791,235.5330,108.9096,16.18118,0.0151422,0.87831415,14.7508,04/27.0/2018,2000,g 14.0,4.0
# From MPC109142
C/2015 G2 (MASTER),h,05/23.8173/2015,147.6160,110.1487,257.5869,1.000444,0.781656,2000,11.0,4.0
# From MPC 95733
C/2015 H1 (Bressi),e,140.6031,325.8931,21.8772,31.98297,0.0054491,0.93961510,6.1372,04/27.0/2018,2000,g 13.5,4.0
# From MPC109142
C/2015 H2 (PANSTARRS),h,09/13.5729/2016,33.6989,350.6978,287.9322,1.004463,4.967847,2000,7.5,4.0
# From MPC 10028
P/2015 HG16 (PANSTARRS),e,18.8941,59.3380,47.5102,4.766526,0.0947112,0.34566633,132.7946,04/27.0/2018,2000,g 12.5,4.0
# From MPC100579
C/2015 J1 (PANSTARRS),h,06/29.3327/2014,94.9867,219.9916,315.5359,1.000658,6.027635,2000,8.5,4.0
# From MPC101096
C/2015 J2 (PANSTARRS),e,17.2793,56.7299,203.7816,275.6209,0.0002154,0.98431700,0.0000,09/09.4991/2015,2000,g 10.0,4.0
# From MPC 95733
P/2015 J3 (NEOWISE),e,8.1272,111.3688,129.3670,3.350666,0.1606969,0.55455516,184.7291,04/27.0/2018,2000,g 16.5,4.0
# From MPC101096
C/2015 K1 (MASTER),e,29.3718,5.1572,280.1785,186.7517,0.0003862,0.98632374,0.0000,10/14.1032/2014,2000,g  9.0,4.0
# From MPC 95733
C/2015 K2 (PANSTARRS),e,29.1209,223.6858,15.8546,286.0730,0.0002037,0.99490820,0.0000,06/09.0406/2015,2000,g 20.0,4.0
# From MPC 95733
